*******************************************************************************
Ephemeris / WWW_USER Mon Jul 15 19:10:16 2024 Pasadena, USA      / Horizons    
*******************************************************************************
Target body name: (2018 RY7)                      {source: JPL#20}
Center body name: Earth (399)                     {source: DE441}
Center-site name: Gemini South Obs., Cerro Pachon
*******************************************************************************
Start time      : A.D. 2018-Dec-17 23:51:00.0000 UT      
Stop  time      : A.D. 2018-Dec-18 09:27:00.0000 UT      
Step-size       : 1 minutes
*******************************************************************************
Target pole/equ : undefined
Target radii    : undefined                                                    
Center geodetic : 289.2634, -30.2406227, 2.71233  {E-lon(deg),Lat(deg),Alt(km)}
Center cylindric: 289.2634,5517.21435,-3194.81213 {E-lon(deg),Dxy(km),Dz(km)}
Center pole/equ : ITRF93                          {East-longitude positive}
Center radii    : 6378.137, 6378.137, 6356.752 km {Equator_a, b, pole_c}       
Target primary  : Sun
Vis. interferer : MOON (R_eq= 1737.400) km        {source: DE441}
Rel. light bend : Sun                             {source: DE441}
Rel. lght bnd GM: 1.3271E+11 km^3/s^2                                          
Small-body perts: Yes                             {source: SB441-N16}
Atmos refraction: NO (AIRLESS)
RA format       : HMS
Time format     : CAL 
Calendar mode   : Mixed Julian/Gregorian
RTS-only print  : NO       
EOP file        : eop.240715.p241008                                           
EOP coverage    : DATA-BASED 1962-JAN-20 TO 2024-JUL-15. PREDICTS-> 2024-OCT-07
Units conversion: 1 au= 149597870.700 km, c= 299792.458 km/s, 1 day= 86400.0 s 
Table cut-offs 1: Elevation (-90.0deg=NO ),Airmass (>38.000=NO), Daylight (YES)
Table cut-offs 2: Solar elongation (  0.0,180.0=NO ),Local Hour Angle( 0.0=NO )
Table cut-offs 3: RA/DEC angular rate (     0.0=NO )                           
*******************************************************************************
Initial IAU76/J2000 heliocentric ecliptic osculating elements (au, days, deg.):
  EPOCH=  2458422.5 ! 2018-Oct-31.00 (TDB)         Residual RMS= .22459        
   EC= .1470549687381346   QR= .8667733479166969   TP= 2458516.8896767548      
   OM= 2.838668085760325   W=  136.9006026425241   IN= 13.35135890147074       
  Equivalent ICRF heliocentric cartesian coordinates (au, au/d):
   X= 8.791791513870114E-01  Y= 4.508422091141234E-01  Z= 3.244113040133835E-01
  VX=-1.085418916943652E-02 VY= 1.006005810562689E-02 VZ= 7.673980932675997E-03
Asteroid physical parameters (km, seconds, rotational period in hours):        
   GM= n.a.                RAD= n.a.               ROTPER= n.a.                
   H= 24.4                 G= .150                 B-V= n.a.                   
                           ALBEDO= n.a.            STYP= n.a.                  
*******************************************************************************
 Date__(UT)__HR:MN     R.A._________(ICRF)_________DEC
******************************************************
$$SOE
 2018-Dec-18 06:00  m  19 20 59.053618 +40 44 08.87232
 2018-Dec-18 06:01  m  19 20 58.988342 +40 44 08.77530
 2018-Dec-18 06:02  m  19 20 58.923070 +40 44 08.67866
 2018-Dec-18 06:03  m  19 20 58.857800 +40 44 08.58239
 2018-Dec-18 06:04  m  19 20 58.792532 +40 44 08.48649
 2018-Dec-18 06:05  m  19 20 58.727267 +40 44 08.39097
 2018-Dec-18 06:06  m  19 20 58.662005 +40 44 08.29582
 2018-Dec-18 06:07  m  19 20 58.596744 +40 44 08.20105
 2018-Dec-18 06:08  m  19 20 58.531484 +40 44 08.10665
 2018-Dec-18 06:09  m  19 20 58.466227 +40 44 08.01263
 2018-Dec-18 06:10  m  19 20 58.400970 +40 44 07.91898
 2018-Dec-18 06:11  m  19 20 58.335714 +40 44 07.82570
 2018-Dec-18 06:12  m  19 20 58.270459 +40 44 07.73281
 2018-Dec-18 06:13  m  19 20 58.205205 +40 44 07.64028
 2018-Dec-18 06:14  m  19 20 58.139950 +40 44 07.54814
 2018-Dec-18 06:15  m  19 20 58.074696 +40 44 07.45636
 2018-Dec-18 06:16  m  19 20 58.009441 +40 44 07.36497
 2018-Dec-18 06:17  m  19 20 57.944186 +40 44 07.27394
 2018-Dec-18 06:18  m  19 20 57.878931 +40 44 07.18330
 2018-Dec-18 06:19  m  19 20 57.813674 +40 44 07.09303
 2018-Dec-18 06:20  m  19 20 57.748416 +40 44 07.00313
 2018-Dec-18 06:21  m  19 20 57.683157 +40 44 06.91361
 2018-Dec-18 06:22  m  19 20 57.617896 +40 44 06.82446
 2018-Dec-18 06:23  m  19 20 57.552633 +40 44 06.73569
 2018-Dec-18 06:24  m  19 20 57.487368 +40 44 06.64730
 2018-Dec-18 06:25  m  19 20 57.422100 +40 44 06.55928
 2018-Dec-18 06:26  m  19 20 57.356830 +40 44 06.47163
 2018-Dec-18 06:27  m  19 20 57.291557 +40 44 06.38436
 2018-Dec-18 06:28  m  19 20 57.226281 +40 44 06.29747
 2018-Dec-18 06:29  m  19 20 57.161002 +40 44 06.21095
 2018-Dec-18 06:30  m  19 20 57.095719 +40 44 06.12480
 2018-Dec-18 06:31  m  19 20 57.030433 +40 44 06.03903
 2018-Dec-18 06:32  m  19 20 56.965142 +40 44 05.95363
 2018-Dec-18 06:33  m  19 20 56.899847 +40 44 05.86861
 2018-Dec-18 06:34  m  19 20 56.834547 +40 44 05.78396
 2018-Dec-18 06:35  m  19 20 56.769243 +40 44 05.69969
 2018-Dec-18 06:36  m  19 20 56.703934 +40 44 05.61579
 2018-Dec-18 06:37  m  19 20 56.638620 +40 44 05.53227
 2018-Dec-18 06:38  m  19 20 56.573300 +40 44 05.44912
 2018-Dec-18 06:39  m  19 20 56.507974 +40 44 05.36634
 2018-Dec-18 06:40  m  19 20 56.442643 +40 44 05.28393
 2018-Dec-18 06:41  m  19 20 56.377305 +40 44 05.20190
 2018-Dec-18 06:42     19 20 56.311961 +40 44 05.12025
 2018-Dec-18 06:43     19 20 56.246611 +40 44 05.03896
 2018-Dec-18 06:44     19 20 56.181253 +40 44 04.95805
 2018-Dec-18 06:45     19 20 56.115889 +40 44 04.87751
 2018-Dec-18 06:46     19 20 56.050517 +40 44 04.79735
 2018-Dec-18 06:47     19 20 55.985137 +40 44 04.71755
 2018-Dec-18 06:48     19 20 55.919750 +40 44 04.63813
 2018-Dec-18 06:49     19 20 55.854354 +40 44 04.55908
 2018-Dec-18 06:50     19 20 55.788951 +40 44 04.48040
 2018-Dec-18 06:51     19 20 55.723539 +40 44 04.40209
 2018-Dec-18 06:52     19 20 55.658118 +40 44 04.32415
 2018-Dec-18 06:53     19 20 55.592688 +40 44 04.24659
 2018-Dec-18 06:54     19 20 55.527249 +40 44 04.16939
 2018-Dec-18 06:55     19 20 55.461800 +40 44 04.09257
 2018-Dec-18 06:56     19 20 55.396342 +40 44 04.01611
 2018-Dec-18 06:57     19 20 55.330874 +40 44 03.94003
 2018-Dec-18 06:58     19 20 55.265395 +40 44 03.86431
 2018-Dec-18 06:59     19 20 55.199907 +40 44 03.78896
 2018-Dec-18 07:00     19 20 55.134407 +40 44 03.71398
 2018-Dec-18 07:01     19 20 55.068897 +40 44 03.63937
 2018-Dec-18 07:02     19 20 55.003376 +40 44 03.56513
 2018-Dec-18 07:03     19 20 54.937843 +40 44 03.49126
 2018-Dec-18 07:04     19 20 54.872299 +40 44 03.41775
 2018-Dec-18 07:05     19 20 54.806743 +40 44 03.34461
 2018-Dec-18 07:06     19 20 54.741176 +40 44 03.27184
 2018-Dec-18 07:07     19 20 54.675595 +40 44 03.19943
 2018-Dec-18 07:08     19 20 54.610003 +40 44 03.12739
 2018-Dec-18 07:09     19 20 54.544397 +40 44 03.05572
 2018-Dec-18 07:10     19 20 54.478779 +40 44 02.98441
 2018-Dec-18 07:11     19 20 54.413148 +40 44 02.91346
 2018-Dec-18 07:12     19 20 54.347503 +40 44 02.84288
 2018-Dec-18 07:13     19 20 54.281844 +40 44 02.77266
 2018-Dec-18 07:14     19 20 54.216172 +40 44 02.70281
 2018-Dec-18 07:15     19 20 54.150486 +40 44 02.63332
 2018-Dec-18 07:16     19 20 54.084785 +40 44 02.56419
 2018-Dec-18 07:17     19 20 54.019070 +40 44 02.49543
 2018-Dec-18 07:18     19 20 53.953340 +40 44 02.42702
 2018-Dec-18 07:19     19 20 53.887594 +40 44 02.35898
 2018-Dec-18 07:20     19 20 53.821834 +40 44 02.29130
 2018-Dec-18 07:21     19 20 53.756058 +40 44 02.22398
 2018-Dec-18 07:22     19 20 53.690267 +40 44 02.15702
 2018-Dec-18 07:23     19 20 53.624459 +40 44 02.09042
 2018-Dec-18 07:24     19 20 53.558636 +40 44 02.02418
 2018-Dec-18 07:25     19 20 53.492796 +40 44 01.95829
 2018-Dec-18 07:26     19 20 53.426939 +40 44 01.89277
 2018-Dec-18 07:27     19 20 53.361066 +40 44 01.82760
 2018-Dec-18 07:28     19 20 53.295176 +40 44 01.76279
 2018-Dec-18 07:29     19 20 53.229268 +40 44 01.69833
 2018-Dec-18 07:30     19 20 53.163343 +40 44 01.63423
 2018-Dec-18 07:31     19 20 53.097400 +40 44 01.57049
 2018-Dec-18 07:32     19 20 53.031439 +40 44 01.50710
 2018-Dec-18 07:33     19 20 52.965460 +40 44 01.44407
 2018-Dec-18 07:34     19 20 52.899462 +40 44 01.38138
 2018-Dec-18 07:35     19 20 52.833446 +40 44 01.31906
 2018-Dec-18 07:36     19 20 52.767411 +40 44 01.25708
 2018-Dec-18 07:37     19 20 52.701357 +40 44 01.19546
 2018-Dec-18 07:38     19 20 52.635284 +40 44 01.13419
 2018-Dec-18 07:39     19 20 52.569191 +40 44 01.07326
 2018-Dec-18 07:40     19 20 52.503078 +40 44 01.01269
 2018-Dec-18 07:41     19 20 52.436946 +40 44 00.95247
 2018-Dec-18 07:42     19 20 52.370793 +40 44 00.89260
 2018-Dec-18 07:43     19 20 52.304620 +40 44 00.83307
 2018-Dec-18 07:44     19 20 52.238426 +40 44 00.77390
 2018-Dec-18 07:45     19 20 52.172211 +40 44 00.71507
 2018-Dec-18 07:46     19 20 52.105975 +40 44 00.65658
 2018-Dec-18 07:47     19 20 52.039718 +40 44 00.59844
 2018-Dec-18 07:48     19 20 51.973440 +40 44 00.54065
 2018-Dec-18 07:49     19 20 51.907140 +40 44 00.48320
 2018-Dec-18 07:50     19 20 51.840817 +40 44 00.42610
 2018-Dec-18 07:51     19 20 51.774473 +40 44 00.36934
 2018-Dec-18 07:52     19 20 51.708106 +40 44 00.31292
 2018-Dec-18 07:53     19 20 51.641717 +40 44 00.25684
 2018-Dec-18 07:54     19 20 51.575305 +40 44 00.20110
 2018-Dec-18 07:55     19 20 51.508869 +40 44 00.14570
 2018-Dec-18 07:56     19 20 51.442411 +40 44 00.09064
 2018-Dec-18 07:57     19 20 51.375929 +40 44 00.03592
 2018-Dec-18 07:58     19 20 51.309423 +40 43 59.98154
 2018-Dec-18 07:59     19 20 51.242894 +40 43 59.92750
 2018-Dec-18 08:00 A   19 20 51.176340 +40 43 59.87379
 2018-Dec-18 08:01 A   19 20 51.109762 +40 43 59.82042
 2018-Dec-18 08:02 A   19 20 51.043160 +40 43 59.76738
